ORBCOMM FM37            
1 33064U 08031E   24243.87539449  .00004827  00000+0  70235-3 0  9992
2 33064  48.4392 281.4828 0005770 220.6699 309.5588 14.77234023871089
ORBCOMM FM40            
1 33065U 08031F   24244.43503019  .00009939  00000+0  13642-2 0  9997
2 33065  48.4394 267.0402 0006995 230.9537 271.2502 14.78764252871663
VESSELSAT 1             
1 37840U 11058C   24244.14235000  .00000675  00000+0  22405-3 0  9991
2 37840  19.9630  48.7736 0013571 236.4239 123.4870 14.11202210665515
ORBCOMM FM109           
1 40086U 14040A   24243.91547327  .00002782  00000+0  64900-3 0  9990
2 40086  47.0033 306.1904 0001080  25.6760 334.4178 14.57054915538833
ORBCOMM FM107           
1 40087U 14040B   24243.88095511  .00002006  00000+0  47856-3 0  9990
2 40087  47.0061 307.3345 0001348 337.8971  22.1855 14.57024682538826
ORBCOMM FM106           
1 40088U 14040C   24243.47900185  .00003408  00000+0  62490-3 0  9996
2 40088  47.0597 154.0304 0017462 157.9159 202.2487 14.67589925540749
ORBCOMM FM111           
1 40089U 14040D   24243.72787541  .00007176  00000+0  89470-3 0  9997
2 40089  47.0046  40.4349 0033712 244.8195 114.9203 14.82740230547060
ORBCOMM FM104           
1 40090U 14040E   24243.55768168  .00002142  00000+0  52501-3 0  9997
2 40090  47.0062 339.0513 0017549 314.4945  45.4505 14.55481127538269
